[{"OBJECT_NAME":"STARLINK-32125","OBJECT_ID":"2024-131F","EPOCH":"2026-03-09T05:38:26.914272","MEAN_MOTION":15.301873,"ECCENTRICITY":0.00012418,"INCLINATION":53.1613,"RA_OF_ASC_NODE":54.2172,"ARG_OF_PERICENTER":79.5558,"MEAN_ANOMALY":280.5582,"EPHEMERIS_TYPE":0,"CLASSIFICATION_TYPE":"U","NORAD_CAT_ID":60260,"ELEMENT_SET_NO":999,"REV_AT_EPOCH":9165,"BSTAR":-5.809984e-6,"MEAN_MOTION_DOT":-5.31e-6,"MEAN_MOTION_DDOT":0},{"OBJECT_NAME":"USA 121","OBJECT_ID":"1996-029C","EPOCH":"2026-03-09T12:20:41.273376","MEAN_MOTION":13.45884179,"ECCENTRICITY":0.08466392,"INCLINATION":63.3189,"RA_OF_ASC_NODE":92.3686,"ARG_OF_PERICENTER":47.9314,"MEAN_ANOMALY":319.0644,"EPHEMERIS_TYPE":0,"CLASSIFICATION_TYPE":"U","NORAD_CAT_ID":23908,"ELEMENT_SET_NO":999,"REV_AT_EPOCH":8995,"BSTAR":0.00032043182,"MEAN_MOTION_DOT":1.829e-5,"MEAN_MOTION_DDOT":0}]
